{
  "type": "FeatureCollection",
  "features": [
    {
      "type": "Feature",
      "properties": {
        "norad_id": 37320,
        "name": "COSMOS 2251 DEB",
        "group": "cosmos-2251-debris",
        "lat": -70.73303215384645,
        "lon": 93.34386545412129,
        "alt_km": 617.2767322123045,
        "timestamp": "2025-12-12T14:39:18.329905+00:00",
        "meta_object_name": "COSMOS 2251 DEB",
        "meta_object_id": "1993-036BKL",
        "meta_epoch": "2025-12-11T08:15:28.693440",
        "meta_mean_motion": 14.78755707,
        "meta_eccentricity": 0.00469304,
        "meta_inclination": 74.0456,
        "meta_ra_of_asc_node": 220.9045,
        "meta_arg_of_pericenter": 308.1681,
        "meta_mean_anomaly": 51.527,
        "meta_ephemeris_type": 0,
        "meta_classification_type": "U",
        "meta_norad_cat_id": 37320,
        "meta_element_set_no": 999,
        "meta_rev_at_epoch": 66126,
        "meta_bstar": 0.0016772012,
        "meta_mean_motion_dot": 0.00012539,
        "meta_mean_motion_ddot": 0,
        "tle_line1": "1 37320U 93036BKL 25345.34408210  .00012539  00000+0  16772-2 0  9991",
        "tle_line2": "2 37320  74.0456 220.9045 0046930 308.1681  51.5270 14.78755707661266"
      },
      "geometry": {
        "type": "Point",
        "coordinates": [
          93.34386545412129,
          -70.73303215384645
        ]
      }
    },
    {
      "type": "Feature",
      "properties": {
        "norad_id": 37326,
        "name": "COSMOS 2251 DEB",
        "group": "cosmos-2251-debris",
        "lat": 61.69176851462198,
        "lon": 122.8132798791154,
        "alt_km": 643.5632954706198,
        "timestamp": "2025-12-12T14:39:18.329914+00:00",
        "meta_object_name": "COSMOS 2251 DEB",
        "meta_object_id": "1993-036BKS",
        "meta_epoch": "2025-12-12T05:55:35.846688",
        "meta_mean_motion": 14.61571858,
        "meta_eccentricity": 0.00547755,
        "meta_inclination": 74.0262,
        "meta_ra_of_asc_node": 335.6359,
        "meta_arg_of_pericenter": 104.8145,
        "meta_mean_anomaly": 255.9098,
        "meta_ephemeris_type": 0,
        "meta_classification_type": "U",
        "meta_norad_cat_id": 37326,
        "meta_element_set_no": 999,
        "meta_rev_at_epoch": 85476,
        "meta_bstar": 0.00081796858,
        "meta_mean_motion_dot": 4.122e-05,
        "meta_mean_motion_ddot": 0,
        "tle_line1": "1 37326U 93036BKS 25346.24694267  .00004122  00000+0  81797-3 0  9995",
        "tle_line2": "2 37326  74.0262 335.6359 0054775 104.8145 255.9098 14.61571858854763"
      },
      "geometry": {
        "type": "Point",
        "coordinates": [
          122.8132798791154,
          61.69176851462198
        ]
      }
    },
    {
      "type": "Feature",
      "properties": {
        "norad_id": 37330,
        "name": "COSMOS 2251 DEB",
        "group": "cosmos-2251-debris",
        "lat": 63.98150291265021,
        "lon": 79.3827976238653,
        "alt_km": 654.2246024755314,
        "timestamp": "2025-12-12T14:39:18.329924+00:00",
        "meta_object_name": "COSMOS 2251 DEB",
        "meta_object_id": "1993-036BKW",
        "meta_epoch": "2025-12-11T05:14:55.753440",
        "meta_mean_motion": 14.59532151,
        "meta_eccentricity": 0.00570619,
        "meta_inclination": 74.0184,
        "meta_ra_of_asc_node": 297.9909,
        "meta_arg_of_pericenter": 146.9563,
        "meta_mean_anomaly": 213.519,
        "meta_ephemeris_type": 0,
        "meta_classification_type": "U",
        "meta_norad_cat_id": 37330,
        "meta_element_set_no": 999,
        "meta_rev_at_epoch": 86346,
        "meta_bstar": 0.00048234262,
        "meta_mean_motion_dot": 2.314e-05,
        "meta_mean_motion_ddot": 0,
        "tle_line1": "1 37330U 93036BKW 25345.21870085  .00002314  00000+0  48234-3 0  9990",
        "tle_line2": "2 37330  74.0184 297.9909 0057061 146.9563 213.5190 14.59532151863464"
      },
      "geometry": {
        "type": "Point",
        "coordinates": [
          79.3827976238653,
          63.98150291265021
        ]
      }
    },
    {
      "type": "Feature",
      "properties": {
        "norad_id": 37331,
        "name": "COSMOS 2251 DEB",
        "group": "cosmos-2251-debris",
        "lat": -60.87351389309021,
        "lon": -81.0697901869662,
        "alt_km": 819.4473717293276,
        "timestamp": "2025-12-12T14:39:18.329933+00:00",
        "meta_object_name": "COSMOS 2251 DEB",
        "meta_object_id": "1993-036BKX",
        "meta_epoch": "2025-12-11T12:25:22.057824",
        "meta_mean_motion": 14.35017786,
        "meta_eccentricity": 0.00551462,
        "meta_inclination": 74.0753,
        "meta_ra_of_asc_node": 70.1043,
        "meta_arg_of_pericenter": 84.7821,
        "meta_mean_anomaly": 275.9621,
        "meta_ephemeris_type": 0,
        "meta_classification_type": "U",
        "meta_norad_cat_id": 37331,
        "meta_element_set_no": 999,
        "meta_rev_at_epoch": 84742,
        "meta_bstar": 0.00087412391,
        "meta_mean_motion_dot": 2.509e-05,
        "meta_mean_motion_ddot": 0,
        "tle_line1": "1 37331U 93036BKX 25345.51761641  .00002509  00000+0  87412-3 0  9998",
        "tle_line2": "2 37331  74.0753  70.1043 0055146  84.7821 275.9621 14.35017786847420"
      },
      "geometry": {
        "type": "Point",
        "coordinates": [
          -81.0697901869662,
          -60.87351389309021
        ]
      }
    },
    {
      "type": "Feature",
      "properties": {
        "norad_id": 37336,
        "name": "COSMOS 2251 DEB",
        "group": "cosmos-2251-debris",
        "lat": -44.384735441880004,
        "lon": 167.71578281947166,
        "alt_km": 809.4344539861931,
        "timestamp": "2025-12-12T14:39:18.329942+00:00",
        "meta_object_name": "COSMOS 2251 DEB",
        "meta_object_id": "1993-036BLC",
        "meta_epoch": "2025-12-09T16:53:45.179232",
        "meta_mean_motion": 14.32756828,
        "meta_eccentricity": 0.00287573,
        "meta_inclination": 74.0407,
        "meta_ra_of_asc_node": 336.7551,
        "meta_arg_of_pericenter": 55.3677,
        "meta_mean_anomaly": 305.0179,
        "meta_ephemeris_type": 0,
        "meta_classification_type": "U",
        "meta_norad_cat_id": 37336,
        "meta_element_set_no": 999,
        "meta_rev_at_epoch": 65076,
        "meta_bstar": 0.00013225409,
        "meta_mean_motion_dot": 3.36e-06,
        "meta_mean_motion_ddot": 0,
        "tle_line1": "1 37336U 93036BLC 25343.70399513  .00000336  00000+0  13225-3 0  9994",
        "tle_line2": "2 37336  74.0407 336.7551 0028757  55.3677 305.0179 14.32756828650763"
      },
      "geometry": {
        "type": "Point",
        "coordinates": [
          167.71578281947166,
          -44.384735441880004
        ]
      }
    },
    {
      "type": "Feature",
      "properties": {
        "norad_id": 37340,
        "name": "COSMOS 2251 DEB",
        "group": "cosmos-2251-debris",
        "lat": 73.27320075942636,
        "lon": -10.211181022439074,
        "alt_km": 757.504893448182,
        "timestamp": "2025-12-12T14:39:18.329950+00:00",
        "meta_object_name": "COSMOS 2251 DEB",
        "meta_object_id": "1993-036BLG",
        "meta_epoch": "2025-12-11T13:11:54.734784",
        "meta_mean_motion": 14.36921007,
        "meta_eccentricity": 0.00177096,
        "meta_inclination": 74.0254,
        "meta_ra_of_asc_node": 279.3432,
        "meta_arg_of_pericenter": 14.6108,
        "meta_mean_anomaly": 345.5553,
        "meta_ephemeris_type": 0,
        "meta_classification_type": "U",
        "meta_norad_cat_id": 37340,
        "meta_element_set_no": 999,
        "meta_rev_at_epoch": 84050,
        "meta_bstar": 0.00032873326,
        "meta_mean_motion_dot": 9.48e-06,
        "meta_mean_motion_ddot": 0,
        "tle_line1": "1 37340U 93036BLG 25345.54993906  .00000948  00000+0  32873-3 0  9998",
        "tle_line2": "2 37340  74.0254 279.3432 0017709  14.6108 345.5553 14.36921007840505"
      },
      "geometry": {
        "type": "Point",
        "coordinates": [
          -10.211181022439074,
          73.27320075942636
        ]
      }
    },
    {
      "type": "Feature",
      "properties": {
        "norad_id": 37483,
        "name": "COSMOS 2251 DEB",
        "group": "cosmos-2251-debris",
        "lat": -13.5305790028961,
        "lon": -32.45601836312186,
        "alt_km": 811.4371427697024,
        "timestamp": "2025-12-12T14:39:18.329960+00:00",
        "meta_object_name": "COSMOS 2251 DEB",
        "meta_object_id": "1993-036BLL",
        "meta_epoch": "2025-12-09T17:33:52.143264",
        "meta_mean_motion": 14.43549902,
        "meta_eccentricity": 0.00929617,
        "meta_inclination": 73.9727,
        "meta_ra_of_asc_node": 148.9468,
        "meta_arg_of_pericenter": 356.1236,
        "meta_mean_anomaly": 3.9188,
        "meta_ephemeris_type": 0,
        "meta_classification_type": "U",
        "meta_norad_cat_id": 37483,
        "meta_element_set_no": 999,
        "meta_rev_at_epoch": 65236,
        "meta_bstar": 0.0003462404,
        "meta_mean_motion_dot": 1.207e-05,
        "meta_mean_motion_ddot": 0,
        "tle_line1": "1 37483U 93036BLL 25343.73185351  .00001207  00000+0  34624-3 0  9997",
        "tle_line2": "2 37483  73.9727 148.9468 0092961 356.1236   3.9188 14.43549902652367"
      },
      "geometry": {
        "type": "Point",
        "coordinates": [
          -32.45601836312186,
          -13.5305790028961
        ]
      }
    }
  ]
}